PRC TEST SPACECRAFT 4   
1 67689U 26024A   26067.48846148  .00000251  00000+0  48668-4 0  9997
2 67689  49.9865  28.4102 0006082 355.6752   4.4136 14.91687239  4401
CZ-2F R/B               
1 67690U 26024B   26067.46554872  .00025493  00000+0  46316-3 0  9999
2 67690  49.9893  20.7384 0174589 269.7813  88.3140 15.34281803  4504
CZ-2F DEB               
1 67691U 26024C   26067.28641751  .02136969  11335-4  83041-3 0  9990
2 67691  49.9021  11.5247 0118675 284.2639  74.5194 16.08141930  4599
CZ-2F DEB               
1 67692U 26024D   26067.36501690  .00328624  00000+0  56108-2 0  9991
2 67692  50.3194  25.1984 0232270 274.7349  82.7124 15.25358551  4429
STARLINK-36748          
1 67693U 26025A   26067.27138082  .00241986  00000+0  15738-2 0  9993
2 67693  97.2833 178.7334 0000753  45.6989 314.4338 15.75247568  5713
STARLINK-36753          
1 67694U 26025B   26067.26361648  .00558628  00000+0  34960-2 0  9991
2 67694  97.2815 178.7419 0002403 122.6234 237.5264 15.75261754  5728
STARLINK-36750          
1 67695U 26025C   26067.54055761 -.00897434  00000+0 -55831-2 0  9992
2 67695  97.2845 179.1336 0001032 129.0599 231.0761 15.79215535  5762
STARLINK-36401          
1 67696U 26025D   26067.24985375  .00440335  00000+0  27755-2 0  9999
2 67696  97.2836 178.7619 0000913 170.9697 189.1585 15.75421632  5718
STARLINK-36704          
1 67697U 26025E   26067.26150001  .00563625  00000+0  34918-2 0  9999
2 67697  97.2825 178.7442 0001843 159.8458 200.2881 15.75481117  5713
STARLINK-36697          
1 67698U 26025F   26067.53379437  .00121822  00000+0  62662-3 0  9993
2 67698  97.2827 179.1417 0001507  99.1364 261.0075 15.80860221  5760
STARLINK-36716          
1 67699U 26025G   26067.54949164  .00308683  00000+0  19869-2 0  9997
2 67699  97.2841 179.1197 0001916  88.1194 272.0290 15.75302116  5775
STARLINK-36712          
1 67700U 26025H   26067.25161899  .00534166  00000+0  33375-2 0  9994
2 67700  97.2848 178.7608 0001397 143.0352 217.1009 15.75365054  5719
