CCSDS_OMM_VERS = 2.0
CREATION_DATE  = 
ORIGINATOR     = 

OBJECT_NAME    = PRC TEST SPACECRAFT 4
OBJECT_ID      = 2026-024A
CENTER_NAME    = EARTH
REF_FRAME      = TEME
TIME_SYSTEM    = UTC
MEAN_ELEMENT_THEORY = SGP/SGP4

EPOCH          = 2026-03-08T11:43:23.071872
MEAN_MOTION    = 14.91687239
ECCENTRICITY   = .0006082
INCLINATION    = 49.9865
RA_OF_ASC_NODE = 28.4102
ARG_OF_PERICENTER = 355.6752
MEAN_ANOMALY   = 4.4136

EPHEMERIS_TYPE = 0
CLASSIFICATION_TYPE = U
NORAD_CAT_ID   = 67689
ELEMENT_SET_NO = 999
REV_AT_EPOCH   = 440
BSTAR          = .48668E-4
MEAN_MOTION_DOT = .251E-5
MEAN_MOTION_DDOT = 0

CCSDS_OMM_VERS = 2.0
CREATION_DATE  = 
ORIGINATOR     = 

OBJECT_NAME    = CZ-2F R/B
OBJECT_ID      = 2026-024B
CENTER_NAME    = EARTH
REF_FRAME      = TEME
TIME_SYSTEM    = UTC
MEAN_ELEMENT_THEORY = SGP/SGP4

EPOCH          = 2026-03-08T11:10:23.409408
MEAN_MOTION    = 15.34281803
ECCENTRICITY   = .0174589
INCLINATION    = 49.9893
RA_OF_ASC_NODE = 20.7384
ARG_OF_PERICENTER = 269.7813
MEAN_ANOMALY   = 88.3140

EPHEMERIS_TYPE = 0
CLASSIFICATION_TYPE = U
NORAD_CAT_ID   = 67690
ELEMENT_SET_NO = 999
REV_AT_EPOCH   = 450
BSTAR          = .46316E-3
MEAN_MOTION_DOT = .25493E-3
MEAN_MOTION_DDOT = 0

CCSDS_OMM_VERS = 2.0
CREATION_DATE  = 
ORIGINATOR     = 

OBJECT_NAME    = CZ-2F DEB
OBJECT_ID      = 2026-024C
CENTER_NAME    = EARTH
REF_FRAME      = TEME
TIME_SYSTEM    = UTC
MEAN_ELEMENT_THEORY = SGP/SGP4

EPOCH          = 2026-03-08T06:52:26.472864
MEAN_MOTION    = 16.08141930
ECCENTRICITY   = .0118675
INCLINATION    = 49.9021
RA_OF_ASC_NODE = 11.5247
ARG_OF_PERICENTER = 284.2639
MEAN_ANOMALY   = 74.5194

EPHEMERIS_TYPE = 0
CLASSIFICATION_TYPE = U
NORAD_CAT_ID   = 67691
ELEMENT_SET_NO = 999
REV_AT_EPOCH   = 459
BSTAR          = .83041E-3
MEAN_MOTION_DOT = .2136969E-1
MEAN_MOTION_DDOT = .11335E-4

CCSDS_OMM_VERS = 2.0
CREATION_DATE  = 
ORIGINATOR     = 

OBJECT_NAME    = CZ-2F DEB
OBJECT_ID      = 2026-024D
CENTER_NAME    = EARTH
REF_FRAME      = TEME
TIME_SYSTEM    = UTC
MEAN_ELEMENT_THEORY = SGP/SGP4

EPOCH          = 2026-03-08T08:45:37.460160
MEAN_MOTION    = 15.25358551
ECCENTRICITY   = .023227
INCLINATION    = 50.3194
RA_OF_ASC_NODE = 25.1984
ARG_OF_PERICENTER = 274.7349
MEAN_ANOMALY   = 82.7124

EPHEMERIS_TYPE = 0
CLASSIFICATION_TYPE = U
NORAD_CAT_ID   = 67692
ELEMENT_SET_NO = 999
REV_AT_EPOCH   = 442
BSTAR          = .56108E-2
MEAN_MOTION_DOT = .328624E-2
MEAN_MOTION_DDOT = 0

CCSDS_OMM_VERS = 2.0
CREATION_DATE  = 
ORIGINATOR     = 

OBJECT_NAME    = STARLINK-36748
OBJECT_ID      = 2026-025A
CENTER_NAME    = EARTH
REF_FRAME      = TEME
TIME_SYSTEM    = UTC
MEAN_ELEMENT_THEORY = SGP/SGP4

EPOCH          = 2026-03-08T06:30:47.302848
MEAN_MOTION    = 15.75247568
ECCENTRICITY   = .0000753
INCLINATION    = 97.2833
RA_OF_ASC_NODE = 178.7334
ARG_OF_PERICENTER = 45.6989
MEAN_ANOMALY   = 314.4338

EPHEMERIS_TYPE = 0
CLASSIFICATION_TYPE = U
NORAD_CAT_ID   = 67693
ELEMENT_SET_NO = 999
REV_AT_EPOCH   = 571
BSTAR          = .15738E-2
MEAN_MOTION_DOT = .241986E-2
MEAN_MOTION_DDOT = 0

CCSDS_OMM_VERS = 2.0
CREATION_DATE  = 
ORIGINATOR     = 

OBJECT_NAME    = STARLINK-36753
OBJECT_ID      = 2026-025B
CENTER_NAME    = EARTH
REF_FRAME      = TEME
TIME_SYSTEM    = UTC
MEAN_ELEMENT_THEORY = SGP/SGP4

EPOCH          = 2026-03-08T06:19:36.463872
MEAN_MOTION    = 15.75261754
ECCENTRICITY   = .0002403
INCLINATION    = 97.2815
RA_OF_ASC_NODE = 178.7419
ARG_OF_PERICENTER = 122.6234
MEAN_ANOMALY   = 237.5264

EPHEMERIS_TYPE = 0
CLASSIFICATION_TYPE = U
NORAD_CAT_ID   = 67694
ELEMENT_SET_NO = 999
REV_AT_EPOCH   = 572
BSTAR          = .3496E-2
MEAN_MOTION_DOT = .558628E-2
MEAN_MOTION_DDOT = 0

CCSDS_OMM_VERS = 2.0
CREATION_DATE  = 
ORIGINATOR     = 

OBJECT_NAME    = STARLINK-36750
OBJECT_ID      = 2026-025C
CENTER_NAME    = EARTH
REF_FRAME      = TEME
TIME_SYSTEM    = UTC
MEAN_ELEMENT_THEORY = SGP/SGP4

EPOCH          = 2026-03-08T12:58:24.177504
MEAN_MOTION    = 15.79215535
ECCENTRICITY   = .0001032
INCLINATION    = 97.2845
RA_OF_ASC_NODE = 179.1336
ARG_OF_PERICENTER = 129.0599
MEAN_ANOMALY   = 231.0761

EPHEMERIS_TYPE = 0
CLASSIFICATION_TYPE = U
NORAD_CAT_ID   = 67695
ELEMENT_SET_NO = 999
REV_AT_EPOCH   = 576
BSTAR          = -.55831E-2
MEAN_MOTION_DOT = -.897434E-2
MEAN_MOTION_DDOT = 0

CCSDS_OMM_VERS = 2.0
CREATION_DATE  = 
ORIGINATOR     = 

OBJECT_NAME    = STARLINK-36401
OBJECT_ID      = 2026-025D
CENTER_NAME    = EARTH
REF_FRAME      = TEME
TIME_SYSTEM    = UTC
MEAN_ELEMENT_THEORY = SGP/SGP4

EPOCH          = 2026-03-08T05:59:47.364000
MEAN_MOTION    = 15.75421632
ECCENTRICITY   = .0000913
INCLINATION    = 97.2836
RA_OF_ASC_NODE = 178.7619
ARG_OF_PERICENTER = 170.9697
MEAN_ANOMALY   = 189.1585

EPHEMERIS_TYPE = 0
CLASSIFICATION_TYPE = U
NORAD_CAT_ID   = 67696
ELEMENT_SET_NO = 999
REV_AT_EPOCH   = 571
BSTAR          = .27755E-2
MEAN_MOTION_DOT = .440335E-2
MEAN_MOTION_DDOT = 0

CCSDS_OMM_VERS = 2.0
CREATION_DATE  = 
ORIGINATOR     = 

OBJECT_NAME    = STARLINK-36704
OBJECT_ID      = 2026-025E
CENTER_NAME    = EARTH
REF_FRAME      = TEME
TIME_SYSTEM    = UTC
MEAN_ELEMENT_THEORY = SGP/SGP4

EPOCH          = 2026-03-08T06:16:33.600864
MEAN_MOTION    = 15.75481117
ECCENTRICITY   = .0001843
INCLINATION    = 97.2825
RA_OF_ASC_NODE = 178.7442
ARG_OF_PERICENTER = 159.8458
MEAN_ANOMALY   = 200.2881

EPHEMERIS_TYPE = 0
CLASSIFICATION_TYPE = U
NORAD_CAT_ID   = 67697
ELEMENT_SET_NO = 999
REV_AT_EPOCH   = 571
BSTAR          = .34918E-2
MEAN_MOTION_DOT = .563625E-2
MEAN_MOTION_DDOT = 0

CCSDS_OMM_VERS = 2.0
CREATION_DATE  = 
ORIGINATOR     = 

OBJECT_NAME    = STARLINK-36697
OBJECT_ID      = 2026-025F
CENTER_NAME    = EARTH
REF_FRAME      = TEME
TIME_SYSTEM    = UTC
MEAN_ELEMENT_THEORY = SGP/SGP4

EPOCH          = 2026-03-08T12:48:39.833568
MEAN_MOTION    = 15.80860221
ECCENTRICITY   = .0001507
INCLINATION    = 97.2827
RA_OF_ASC_NODE = 179.1417
ARG_OF_PERICENTER = 99.1364
MEAN_ANOMALY   = 261.0075

EPHEMERIS_TYPE = 0
CLASSIFICATION_TYPE = U
NORAD_CAT_ID   = 67698
ELEMENT_SET_NO = 999
REV_AT_EPOCH   = 576
BSTAR          = .62662E-3
MEAN_MOTION_DOT = .121822E-2
MEAN_MOTION_DDOT = 0

CCSDS_OMM_VERS = 2.0
CREATION_DATE  = 
ORIGINATOR     = 

OBJECT_NAME    = STARLINK-36716
OBJECT_ID      = 2026-025G
CENTER_NAME    = EARTH
REF_FRAME      = TEME
TIME_SYSTEM    = UTC
MEAN_ELEMENT_THEORY = SGP/SGP4

EPOCH          = 2026-03-08T13:11:16.077696
MEAN_MOTION    = 15.75302116
ECCENTRICITY   = .0001916
INCLINATION    = 97.2841
RA_OF_ASC_NODE = 179.1197
ARG_OF_PERICENTER = 88.1194
MEAN_ANOMALY   = 272.0290

EPHEMERIS_TYPE = 0
CLASSIFICATION_TYPE = U
NORAD_CAT_ID   = 67699
ELEMENT_SET_NO = 999
REV_AT_EPOCH   = 577
BSTAR          = .19869E-2
MEAN_MOTION_DOT = .308683E-2
MEAN_MOTION_DDOT = 0

CCSDS_OMM_VERS = 2.0
CREATION_DATE  = 
ORIGINATOR     = 

OBJECT_NAME    = STARLINK-36712
OBJECT_ID      = 2026-025H
CENTER_NAME    = EARTH
REF_FRAME      = TEME
TIME_SYSTEM    = UTC
MEAN_ELEMENT_THEORY = SGP/SGP4

EPOCH          = 2026-03-08T06:02:19.880736
MEAN_MOTION    = 15.75365054
ECCENTRICITY   = .0001397
INCLINATION    = 97.2848
RA_OF_ASC_NODE = 178.7608
ARG_OF_PERICENTER = 143.0352
MEAN_ANOMALY   = 217.1009

EPHEMERIS_TYPE = 0
CLASSIFICATION_TYPE = U
NORAD_CAT_ID   = 67700
ELEMENT_SET_NO = 999
REV_AT_EPOCH   = 571
BSTAR          = .33375E-2
MEAN_MOTION_DOT = .534166E-2
MEAN_MOTION_DDOT = 0

